NORAD_CAT_ID,OBJECT_NAME,OBJECT_TYPE,EPOCH,MEAN_MOTION,ECCENTRICITY,INCLINATION,RA_OF_ASC_NODE,ARG_OF_PERICENTER,MEAN_ANOMALY,BSTAR,MEAN_MOTION_DOT,MEAN_MOTION_DDOT,TLE_LINE0,TLE_LINE1,TLE_LINE2,SEMIMAJOR_AXIS,PERIOD,APOGEE,PERIGEE,DECAYED
53734.0,STARLINK-4616,PAYLOAD,2023-04-24 22:00:01,15.10420752,0.0001324,53.214,286.8387,59.1662,245.8586,0.002129,0.00035272,0.0,0 STARLINK-4616,1 53734U 22107AL  23114.91668981  .00035272  00000-0  21290-2 0  9998,2 53734  53.2140 286.8387 0001324  59.1662 245.8586 15.10420752 35463,6913.053,95.338,535.833,534.003,0.0
53734.0,STARLINK-4616,PAYLOAD,2023-04-25 14:00:01,15.1047118,0.0001285,53.2141,283.8372,63.3656,268.6611,0.00069079,0.00011224,0.0,0 STARLINK-4616,1 53734U 22107AL  23115.58335648  .00011224  00000-0  69079-3 0  9992,2 53734  53.2141 283.8372 0001285  63.3656 268.6611 15.10471180  1300,6912.899,95.334,535.652,533.876,0.0
53734.0,STARLINK-4616,PAYLOAD,2023-04-26 14:00:01,15.10685484,0.0001478,53.2141,279.337,68.7424,303.7789,-0.038419,-0.00599743,0.0,0 STARLINK-4616,1 53734U 22107AL  23116.58334491 -.00599743  00000-0 -38419-1 0  9999,2 53734  53.2141 279.3370 0001478  68.7424 303.7789 15.10685484  1305,6912.245,95.321,535.132,533.089,0.0
53734.0,STARLINK-4616,PAYLOAD,2023-04-27 00:00:00,15.10099009,0.0001625,53.2139,277.4626,72.7693,46.6158,-0.031949,-0.00496755,0.0,0 STARLINK-4616,1 53734U 22107AL  23117.00001157 -.00496755  00000-0 -31949-1 0  9997,2 53734  53.2139 277.4626 0001625  72.7693  46.6158 15.10099009  1307,6914.035,95.358,537.023,534.776,0.0
53734.0,STARLINK-4616,PAYLOAD,2023-04-27 04:14:23,15.10195127,0.0001738,53.2138,276.6678,63.4523,296.6648,-0.0078055,-0.00126972,0.0,0 STARLINK-4616,1 53734U 22107AL  23117.17666189 -.00126972  00000-0 -78055-2 0  9998,2 53734  53.2138 276.6678 0001738  63.4523 296.6648 15.10195127 35810,6913.741,95.352,536.808,534.405,0.0
53734.0,STARLINK-4616,PAYLOAD,2023-04-27 10:35:36,15.10218762,0.0003649,53.2139,275.477,48.2728,311.8576,-0.0020649,-0.00034268,0.0,0 STARLINK-4616,1 53734U 22107AL  23117.44140043 -.00034268  00000-0 -20649-2 0  9996,2 53734  53.2139 275.4770 0003649  48.2728 311.8576 15.10218762 36487,6913.669,95.35,538.057,533.011,0.0
53734.0,STARLINK-4616,PAYLOAD,2023-04-27 20:07:44,15.09628464,0.0001072,53.214,273.6918,67.1241,292.9865,-0.01225,-0.0019419,0.0,0 STARLINK-4616,1 53734U 22107AL  23117.83870538 -.00194190  00000-0 -12250-1 0  9997,2 53734  53.2140 273.6918 0001072  67.1241 292.9865 15.09628464 35910,6915.471,95.388,538.078,536.595,0.0
53734.0,STARLINK-4616,PAYLOAD,2023-04-28 00:53:50,15.09362223,0.0001825,53.2141,272.7995,68.551,291.5677,-0.014843,-0.00232301,0.0,0 STARLINK-4616,1 53734U 22107AL  23118.03739425 -.00232301  00000-0 -14843-1 0  9996,2 53734  53.2141 272.7995 0001825  68.5510 291.5677 15.09362223 35943,6916.285,95.405,539.412,536.887,0.0
53734.0,STARLINK-4616,PAYLOAD,2023-04-28 14:00:01,15.08855113,0.0001522,53.2145,270.3485,81.1894,6.1069,-0.0025673,-0.00040932,0.0,0 STARLINK-4616,1 53734U 22107AL  23118.58334491 -.00040932  00000-0 -25673-2 0  9991,2 53734  53.2145 270.3485 0001522  81.1894   6.1069 15.08855113 36024,6917.834,95.437,540.752,538.646,0.0
53734.0,STARLINK-4616,PAYLOAD,2023-04-29 06:00:00,15.08812299,0.0001225,53.2145,267.3548,84.7637,25.7119,0.0037988,0.00060644,0.0,0 STARLINK-4616,1 53734U 22107AL  23119.25001157  .00060644  00000-0  37988-2 0  9998,2 53734  53.2145 267.3548 0001225  84.7637  25.7119 15.08812299 36126,6917.965,95.439,540.678,538.983,0.0
53734.0,STARLINK-4616,PAYLOAD,2023-04-29 14:00:01,15.08874782,0.0001287,53.2145,265.8593,83.1039,39.0041,-0.0038438,-0.00061001,0.0,0 STARLINK-4616,1 53734U 22107AL  23119.58335648 -.00061001  00000-0 -38438-2 0  9990,2 53734  53.2145 265.8593 0001287  83.1039  39.0041 15.08874782  1305,6917.774,95.435,540.529,538.749,0.0
53734.0,STARLINK-4616,PAYLOAD,2023-04-29 22:00:00,15.08814528,0.0001223,53.2141,264.3634,78.4731,55.1904,0.0020589,0.00032608,0.0,0 STARLINK-4616,1 53734U 22107AL  23119.91667824  .00032608  00000-0  20589-2 0  9998,2 53734  53.2141 264.3634 0001223  78.4731  55.1904 15.08814528 36225,6917.958,95.439,540.669,538.977,0.0
53734.0,STARLINK-4616,PAYLOAD,2023-04-30 14:00:01,15.08891087,0.000121,53.2144,261.37,91.2894,65.5545,-0.0055176,-0.0008716,0.0,0 STARLINK-4616,1 53734U 22107AL  23120.58334491 -.00087160  00000-0 -55176-2 0  9999,2 53734  53.2144 261.3700 0001210  91.2894  65.5545 15.08891087  1300,6917.724,95.434,540.426,538.752,0.0
53734.0,STARLINK-4616,PAYLOAD,2023-04-30 22:00:00,15.08811863,0.0001133,53.2139,259.8739,88.4173,80.0479,0.0011992,0.00018834,0.0,0 STARLINK-4616,1 53734U 22107AL  23120.91667824  .00018834  00000-0  11992-2 0  9993,2 53734  53.2139 259.8739 0001133  88.4173  80.0479 15.08811863 36377,6917.966,95.439,540.615,539.048,0.0
53734.0,STARLINK-4616,PAYLOAD,2023-05-01 13:09:16,15.08837179,0.0001386,53.214,257.0346,118.0715,242.0417,-9.7445e-06,-4.43e-06,0.0,0 STARLINK-4616,1 53734U 22107AL  23121.54810697 -.00000443  00000-0 -97445-5 0  9990,2 53734  53.2140 257.0346 0001386 118.0715 242.0417 15.08837179 37107,6917.889,95.438,540.713,538.795,0.0
53734.0,STARLINK-4616,PAYLOAD,2023-05-01 17:55:26,15.08839603,0.0001276,53.2143,256.1448,83.0225,277.0912,3.6691e-05,2.96e-06,0.0,0 STARLINK-4616,1 53734U 22107AL  23121.74682907  .00000296  00000-0  36691-4 0  9992,2 53734  53.2143 256.1448 0001276  83.0225 277.0912 15.08839603 37133,6917.882,95.438,540.629,538.864,0.0
53734.0,STARLINK-4616,PAYLOAD,2023-05-02 13:00:03,15.08847941,0.0001188,53.2148,252.5752,96.2903,263.8224,0.00013837,1.915e-05,0.0,0 STARLINK-4616,1 53734U 22107AL  23122.54170433  .00001915  00000-0  13837-3 0  9992,2 53734  53.2148 252.5752 0001188  96.2903 263.8224 15.08847941 37253,6917.856,95.437,540.543,538.899,0.0
53734.0,STARLINK-4616,PAYLOAD,2023-05-02 16:10:49,15.08851493,0.0001205,53.2145,251.9805,91.1961,268.9169,0.00031229,4.687e-05,0.0,0 STARLINK-4616,1 53734U 22107AL  23122.67418354  .00004687  00000-0  31229-3 0  9997,2 53734  53.2145 251.9805 0001205  91.1961 268.9169 15.08851493 37273,6917.845,95.437,540.544,538.877,0.0
53734.0,STARLINK-4616,PAYLOAD,2023-05-03 01:43:08,15.08841394,0.0001248,53.2142,250.2026,84.2967,275.8167,7.4997e-05,9.06e-06,0.0,0 STARLINK-4616,1 53734U 22107AL  23123.07162339  .00000906  00000-0  74997-4 0  9991,2 53734  53.2142 250.2026 0001248  84.2967 275.8167 15.08841394 36704,6917.876,95.437,540.604,538.878,0.0
53734.0,STARLINK-4616,PAYLOAD,2023-05-03 12:50:50,15.08833487,0.0001279,53.2135,248.1167,79.3246,280.789,-2.8787e-05,-7.46e-06,0.0,0 STARLINK-4616,1 53734U 22107AL  23123.53531215 -.00000746  00000-0 -28787-4 0  9995,2 53734  53.2135 248.1167 0001279  79.3246 280.7890 15.08833487 36776,6917.9,95.438,540.65,538.88,0.0
53734.0,STARLINK-4616,PAYLOAD,2023-05-03 16:01:37,15.08837069,0.0001305,53.2139,247.5218,79.2681,280.8458,4.7212e-05,4.64e-06,0.0,0 STARLINK-4616,1 53734U 22107AL  23123.66779239  .00000464  00000-0  47212-4 0  9998,2 53734  53.2139 247.5218 0001305  79.2681 280.8458 15.08837069 37426,6917.889,95.438,540.657,538.852,0.0
53734.0,STARLINK-4616,PAYLOAD,2023-05-04 12:41:37,15.08849093,0.0001363,53.2141,243.6567,72.185,287.9291,0.00011326,1.515e-05,0.0,0 STARLINK-4616,1 53734U 22107AL  23124.52890775  .00001515  00000-0  11326-3 0  9997,2 53734  53.2141 243.6567 0001363  72.1850 287.9291 15.08849093 36924,6917.853,95.437,540.66,538.775,0.0
53734.0,STARLINK-4616,PAYLOAD,2023-05-04 14:17:00,15.08849782,0.0001299,53.2142,243.3594,74.3819,285.7316,0.00015039,2.107e-05,0.0,0 STARLINK-4616,1 53734U 22107AL  23124.59514726  .00002107  00000-0  15039-3 0  9996,2 53734  53.2142 243.3594 0001299  74.3819 285.7316 15.08849782 37569,6917.85,95.437,540.614,538.817,0.0
53734.0,STARLINK-4616,PAYLOAD,2023-05-05 07:46:16,15.08832621,0.0001491,53.2152,240.0911,64.1574,295.9572,0.00017414,2.484e-05,0.0,0 STARLINK-4616,1 53734U 22107AL  23125.32379695  .00002484  00000-0  17414-3 0  9999,2 53734  53.2152 240.0911 0001491  64.1574 295.9572 15.08832621 37040,6917.903,95.438,540.799,538.736,0.0
53734.0,STARLINK-4616,PAYLOAD,2023-05-05 14:07:48,15.08837547,0.0001274,53.2144,238.8974,91.589,268.5248,5.701e-05,6.19e-06,0.0,0 STARLINK-4616,1 53734U 22107AL  23125.58875344  .00000619  00000-0  57010-4 0  9994,2 53734  53.2144 238.8974 0001274  91.5890 268.5248 15.08837547 37711,6917.888,95.438,540.634,538.872,0.0
53734.0,STARLINK-4616,PAYLOAD,2023-05-05 17:18:34,15.08840684,0.0001241,53.2149,238.3023,95.3897,264.7237,7.9577e-05,9.79e-06,0.0,0 STARLINK-4616,1 53734U 22107AL  23125.72123112  .00000979  00000-0  79577-4 0  9990,2 53734  53.2149 238.3023 0001241  95.3897 264.7237 15.08840684 37104,6917.878,95.438,540.602,538.885,0.0
53734.0,STARLINK-4616,PAYLOAD,2023-05-06 13:58:34,15.08850476,0.0001181,53.2147,234.4364,86.5341,273.5786,7.617e-05,9.25e-06,0.0,0 STARLINK-4616,1 53734U 22107AL  23126.58234720  .00000925  00000-0  76170-4 0  9990,2 53734  53.2147 234.4364 0001181  86.5341 273.5786 15.08850476 37866,6917.848,95.437,540.53,538.896,0.0
53734.0,STARLINK-4616,PAYLOAD,2023-05-07 12:13:58,15.08848113,0.000126,53.2137,230.2744,91.612,268.5016,0.00022829,3.348e-05,0.0,0 STARLINK-4616,1 53734U 22107AL  23127.50970731  .00003348  00000-0  22829-3 0  9995,2 53734  53.2137 230.2744 0001260  91.6120 268.5016 15.08848113 37372,6917.856,95.437,540.592,538.849,0.0
53734.0,STARLINK-4616,PAYLOAD,2023-05-07 13:49:21,15.08852928,0.0001189,53.2144,229.9757,94.1393,265.9735,0.00024421,3.602e-05,0.0,0 STARLINK-4616,1 53734U 22107AL  23127.57594438  .00003602  00000-0  24421-3 0  9991,2 53734  53.2144 229.9757 0001189  94.1393 265.9735 15.08852928 38019,6917.841,95.437,540.528,538.883,0.0
53734.0,STARLINK-4616,PAYLOAD,2023-05-07 23:21:40,15.08842661,0.0001253,53.2149,228.1898,94.3841,265.7294,7.9994e-05,9.86e-06,0.0,0 STARLINK-4616,1 53734U 22107AL  23127.97338677  .00000986  00000-0  79994-4 0  9994,2 53734  53.2149 228.1898 0001253  94.3841 265.7294 15.08842661 37440,6917.872,95.437,540.604,538.87,0.0
